SHIYAN-24C 02           
1 58651U 23206B   26068.89175597  .00002770  00000+0  23935-3 0  9991
2 58651  97.3985  41.8071 0003465  80.6641 279.4974 14.97980163120443
STARLINK-33885          
1 63886U 25094Y   26068.87181255  .00004798  00000+0  40965-3 0  9994
2 63886  70.0018 233.8651 0003058 266.2522  93.8288 14.98331241 47238
