[{"OBJECT_NAME":"SHIYAN-24C 02","OBJECT_ID":"2023-206B","EPOCH":"2026-03-09T21:24:07.715808","MEAN_MOTION":14.97980163,"ECCENTRICITY":0.0003465,"INCLINATION":97.3985,"RA_OF_ASC_NODE":41.8071,"ARG_OF_PERICENTER":80.6641,"MEAN_ANOMALY":279.4974,"EPHEMERIS_TYPE":0,"CLASSIFICATION_TYPE":"U","NORAD_CAT_ID":58651,"ELEMENT_SET_NO":999,"REV_AT_EPOCH":12044,"BSTAR":0.00023935,"MEAN_MOTION_DOT":2.77e-5,"MEAN_MOTION_DDOT":0},{"OBJECT_NAME":"STARLINK-33885","OBJECT_ID":"2025-094Y","EPOCH":"2026-03-09T20:55:24.604320","MEAN_MOTION":14.98331241,"ECCENTRICITY":0.00030576,"INCLINATION":70.0018,"RA_OF_ASC_NODE":233.8651,"ARG_OF_PERICENTER":266.2522,"MEAN_ANOMALY":93.8288,"EPHEMERIS_TYPE":0,"CLASSIFICATION_TYPE":"U","NORAD_CAT_ID":63886,"ELEMENT_SET_NO":999,"REV_AT_EPOCH":4723,"BSTAR":0.0004096482,"MEAN_MOTION_DOT":4.798e-5,"MEAN_MOTION_DDOT":0}]
